PROPCUBE 2 (FAUNA)      
1 43052U 17071R   19057.80427923  .00002984  00000-0  81511-4 0  9990
2 43052  51.6380 238.7591 0002931 123.2676 236.8590 15.40765660 68801
CORVUS BC3              
1 43118U 18004H   19057.69683545  .00000657  00000-0  31307-4 0  9994
2 43118  97.5004 125.3591 0008931 286.9820  73.0437 15.22648723 62435
MICROMAS-2A             
1 43131U 18004W   19057.85359501  .00001537  00000-0  67078-4 0  9991
2 43131  97.5021 125.9725 0007953 288.7479  71.2895 15.23678907 62488
CICERO 7                
1 43143U 18004AJ  19057.75833896  .00001212  00000-0  53174-4 0  9999
2 43143  97.5013 126.0796 0006171 302.3190  57.7449 15.23895779 62488
GOMX-4B                 
1 43196U 18015E   19057.94392456  .00000173  00000-0  10121-4 0  9992
2 43196  97.3732 187.1976 0019149 345.0208  15.0442 15.23816322 59329
GOMX-4A                 
1 43197U 18015F   19058.53474102  .00000302  00000-0  15387-4 0  9991
2 43197  97.3743 187.7935 0018965 345.1540  76.9558 15.23914180 59424
1KUNS-PF                
1 43466U 98067NP  19058.49006154  .00013182  00000-0  15356-3 0  9993
2 43466  51.6376 177.1578 0000778  17.2902 342.8118 15.62034124 45512
UBAKUSAT                
1 43467U 98067NQ  19058.50454252  .00009261  00000-0  11784-3 0  9996
2 43467  51.6374 178.7501 0002655  10.2360 349.8687 15.60144030 45504
BATSU-CS1 (IRAZU)       
1 43468U 98067NR  19057.60681339  .00017921  00000-0  19535-3 0  9999
2 43468  51.6372 180.2538 0000728 355.3908   4.7079 15.63469495145388
CUBERRT                 
1 43546U 98067NU  19058.54557397  .00013441  00000-0  16600-3 0  9999
2 43546  51.6375 180.5157 0005584  71.5161 288.6439 15.60472149 35615
TEMPEST-D               
1 43547U 98067NV  19058.51802942  .00003637  00000-0  56825-4 0  9996
2 43547  51.6386 183.3275 0006254  70.3653 289.8013 15.56673767 35253
RAINCUBE                
1 43548U 98067NW  19058.52587263  .00009851  00000-0  13185-3 0  9999
2 43548  51.6368 181.8796 0005758  76.9068 283.2567 15.58699502 35726
HALOSAT                 
1 43549U 98067NX  19057.56464643  .00011700  00000-0  15571-3 0  9996
2 43549  51.6370 186.7130 0005718  76.9261 283.2370 15.58635266 35131
ENDUROSAT ONE           
1 43551U 98067NZ  19058.50774199  .00010540  00000-0  13586-3 0  9999
2 43551  51.6379 181.0135 0005975  86.2401 273.9275 15.59618028 35702
EQUISAT                 
1 43552U 98067PA  19058.54962169  .00010060  00000-0  13317-3 0  9999
2 43552  51.6386 181.2988 0006387  86.4619 273.7104 15.58964779 35660
AEROCUBE 12A            
1 43556U 18046C   19057.78680768  .00000548  00000-0  32330-4 0  9996
2 43556  51.6412 233.2990 0008805  34.4952 325.6598 15.28331713 34447
AEROCUBE 12B            
1 43557U 18046D   19058.51184904  .00000383  00000-0  26508-4 0  9997
2 43557  51.6417 229.8873 0008853  36.8914 323.2673 15.28253494 34505
UITMSAT-1               
1 43589U 98067PD  19058.54953581  .00010947  00000-0  14540-3 0  9990
2 43589  51.6361 182.0296 0005588  94.5461 265.6170 15.58769806 31394
MAYA-1                  
1 43590U 98067PE  19058.54615784  .00011167  00000-0  14805-3 0  9991
2 43590  51.6362 182.0087 0005675  95.1762 264.9878 15.58794232 31324
BHUTAN-1                
1 43591U 98067PF  19057.57901910  .00010179  00000-0  13538-3 0  9997
2 43591  51.6377 186.8056 0005871  92.8107 267.3558 15.58825633 31179
SIRIUSSAT-1             
1 43595U 98067PG  19058.54088286  .00010107  00000-0  13751-3 0  9999
2 43595  51.6367 182.7217 0003672  49.9507 310.1807 15.58230536 30490
SIRIUSSAT-2             
1 43596U 98067PH  19058.04664206  .00010240  00000-0  14008-3 0  9991
2 43596  51.6378 185.4416 0004289  49.5876 310.5490 15.58063342 30417
TANUSHA-3               
1 43597U 98067PJ  19058.51185397  .00011321  00000-0  14962-3 0  9993
2 43597  51.6360 182.5082 0003628  64.4880 295.6488 15.58866244 30493
SURFSAT                 
1 43614U 18070B   19057.69774475  .00002250  00000-0  62169-4 0  9992
2 43614  93.0376 317.4145 0017648  26.6176 333.5979 15.36993596 25201
CP7 (DAVE)              
1 43615U 18070C   19057.69902334  .00002123  00000-0  58743-4 0  9992
2 43615  93.0377 317.4158 0017643  26.4148 333.8000 15.36950867 25201
ELFIN-B                 
1 43616U 18070D   19057.74300185  .00003145  00000-0  85824-4 0  9990
2 43616  93.0336 317.3719 0018737  29.0404 331.1887 15.37319112 25216
ELFIN-A                 
1 43617U 18070E   19057.73936998  .00003178  00000-0  86692-4 0  9997
2 43617  93.0392 317.4987 0017632  26.4701 333.7448 15.37355677 25218
DEBRISSAT-1             
1 43621U 98067PM  19058.57532186  .01247118  89756-3  17830-2 0  9999
2 43621  51.6257 167.9129 0013369 358.6344   1.4834 16.04854354 25685
CUBEBEL-1 (BSUSAT-1)    
1 43666U 18083E   19058.44556424  .00000882  00000-0  47573-4 0  9990
2 43666  97.5303  83.6353 0014317 209.9491 256.1676 15.17326685 18413
DEBRISSAT-2             
1 43680U 98067PR  19057.81210781  .00014843  00000-0  19462-3 0  9996
2 43680  51.6407 186.1016 0003477  89.5947 270.5443 15.58792035 39127
CICERO 10               
1 43690U 18088A   19057.93970812  .00000898  00000-0  40518-4 0  9995
2 43690  85.0383  32.0536 0012960 255.8704 104.1097 15.19421124 16389
IRVINE01                
1 43693U 18088D   19057.97827722  .00002084  00000-0  92328-4 0  9998
2 43693  85.0360  31.8505 0016442 240.4623 119.4979 15.20864825 16388
PROXIMA I               
1 43694U 18088E   19057.94743072  .00000916  00000-0  39184-4 0  9994
2 43694  85.0327  31.7707 0017633 230.8084 129.1592 15.21169115 16393
PROXIMA II              
1 43696U 18088G   19057.94698737  .00000912  00000-0  39001-4 0  9997
2 43696  85.0327  31.7715 0017667 230.7729 129.1945 15.21175191 16388
FACSAT-1                
1 43721U 18096C   19058.53183321  .00001043  00000-0  43381-4 0  9991
2 43721  97.4722 128.5356 0018298   7.0333 353.1159 15.25933954 13786
CENTAURI-2              
1 43722U 18096D   19058.52568976  .00001614  00000-0  65283-4 0  9993
2 43722  97.4721 128.5442 0018390   7.8448 352.3074 15.26072589 13775
CORVUS-BC 4             
1 43767U 18099K   19057.91604852 -.00000227  00000-0 -15685-4 0  9993
2 43767  97.7554 131.1220 0011275 343.1953  16.8892 14.94518909 12726
SHIELDS 1               
1 43850U 18104B   19057.67358261  .00000041  00000-0  00000-0 0  9999
2 43850  85.0310 130.4902 0015684  30.8894 329.3250 15.20971825 10997
STF-1                   
1 43852U 18104D   19057.63894530  .00000041  00000-0  00000-0 0  9991
2 43852  85.0327 130.6088 0016173  44.6624 315.5916 15.20359773 10989
LUME 1                  
1 43908U 18111AJ  19058.52337560  .00001024  00000-0  44788-4 0  9992
2 43908  97.2978 326.7694 0022680  27.7321 332.5121 15.24076022  9516
AOBA VELOX-IV           
1 43940U 19003J   19058.42075441  .00001265  00000-0  55663-4 0  9996
2 43940  97.2912 119.5690 0026639 103.0971 321.3015 15.23368996  6148
CATSAT-2                
1 44029U 98067PV  19058.52089231  .00008598  00000-0  13657-3 0  9997
2 44029  51.6387 186.3459 0005298  94.2236 265.9360 15.54208299  4276
DELPHINI                
1 44030U 98067PW  19058.52066849  .00008227  00000-0  13084-3 0  9992
2 44030  51.6383 186.3442 0004841  92.2433 267.9112 15.54241192  4249
UNITE                   
1 44031U 98067PX  19058.52109998  .00005799  00000-0  94723-4 0  9997
2 44031  51.6386 186.3468 0003620  89.0631 271.0775 15.54142054  4247
TECHEDSAT 8             
1 44032U 98067PY  19058.51536590  .00015591  00000-0  23680-3 0  9993
2 44032  51.6382 186.3089 0003329  86.2874 273.8498 15.54758407  4222
CATSAT-1                
1 44033U 98067PZ  19058.52061061  .00007163  00000-0  11504-3 0  9999
2 44033  51.6387 186.3442 0005218  93.9086 266.2501 15.54198128  4184
